RADUGA 32               
1 23448U 94087A   12040.50861282 -.00000138  00000-0  10000-3 0  4697
2 23448  12.1945  41.2099 0004055 126.1119 234.0087  1.00265550 80382
RADUGA-1 4              
1 25642U 99010A   12042.50094861 -.00000257  00000-0  10000-3 0  5614
2 25642  11.0848  55.4106 0002582 136.6938 223.4193  1.00201254 47445
RADUGA-1 5              
1 26477U 00049A   12042.85251699 -.00000226  00000-0  10000-3 0  2980
2 26477   8.7057  55.1270 0003526 324.7006 155.4075  1.00334804 41952
RADUGA-1 7              
1 28194U 04010A   12040.71968349  .00000145  00000-0  10000-3 0  5522
2 28194   6.1262  68.9926 0001406 316.8584  43.2947  1.00212628 28842
RADUGA-1M 1             
1 32373U 07058A   12042.82834757 -.00000045  00000-0  10000-3 0  2101
2 32373   0.0361 243.1728 0002159  75.3709 190.9284  1.00272659 16197
